ORBCOMM FM33            
1 25983U 99065D   24357.76096068  .00002672  00000+0  90105-3 0  9993
2 25983  45.0274 117.2530 0009986 247.2374 112.7420 14.39090461310649
ORBCOMM FM36            
1 25984U 99065E   24358.04929110  .00002389  00000+0  84242-3 0  9999
2 25984  45.0371 205.1021 0003945 133.4985 226.6192 14.37210759309666
ORBCOMM FM35            
1 25985U 99065F   24357.91002937  .00001611  00000+0  59348-3 0  9990
2 25985  45.0381 209.4791 0003126 225.8301 134.2291 14.36353257309628
ORBCOMM FM34            
1 25986U 99065G   24357.81130048  .00001611  00000+0  59320-3 0  9995
2 25986  45.0376 210.4754 0003836 170.6012 189.4909 14.36388766309539
ORBCOMM FM38            
1 33060U 08031A   24358.22274269  .00004365  00000+0  59975-3 0  9995
2 33060  48.4403  73.0193 0005713 350.0555  10.0247 14.79885509888665
ORBCOMM FM41            
1 33061U 08031B   24357.66717045  .00004026  00000+0  56026-3 0  9995
2 33061  48.4435  82.8656 0005152 332.1052 176.6842 14.79513706888086
ORBCOMM FM29            
1 33062U 08031C   24357.65932582  .00004208  00000+0  58382-3 0  9999
2 33062  48.4385  90.8831 0006805 333.6764 173.1789 14.79544953887996
ORBCOMM FM39            
1 33063U 08031D   24357.83680436  .00004429  00000+0  63125-3 0  9994
2 33063  48.4392 112.4810 0007882 311.4248  48.5988 14.78277607888119
