<?xml version="1.0" encoding="UTF-8"?>
<ndm xmlns:xsi="http://www.w3.org/2001/XMLSchema-instance" xsi:noNamespaceSchemaLocation="https://sanaregistry.org/r/ndmxml_unqualified/ndmxml-2.0.0-master-2.0.xsd">
<omm id="CCSDS_OMM_VERS" version="2.0">
<header><CREATION_DATE/><ORIGINATOR/></header><body><segment><metadata><OBJECT_NAME>ORBCOMM FM33</OBJECT_NAME><OBJECT_ID>1999-065D</OBJECT_ID><CENTER_NAME>EARTH</CENTER_NAME><REF_FRAME>TEME</REF_FRAME><TIME_SYSTEM>UTC</TIME_SYSTEM><MEAN_ELEMENT_THEORY>SGP4</MEAN_ELEMENT_THEORY></metadata><data><meanElements><EPOCH>2024-12-22T18:15:47.002752</EPOCH><MEAN_MOTION>14.39090461</MEAN_MOTION><ECCENTRICITY>.0009986</ECCENTRICITY><INCLINATION>45.0274</INCLINATION><RA_OF_ASC_NODE>117.2530</RA_OF_ASC_NODE><ARG_OF_PERICENTER>247.2374</ARG_OF_PERICENTER><MEAN_ANOMALY>112.7420</MEAN_ANOMALY></meanElements><tleParameters><EPHEMERIS_TYPE>0</EPHEMERIS_TYPE><CLASSIFICATION_TYPE>U</CLASSIFICATION_TYPE><NORAD_CAT_ID>25983</NORAD_CAT_ID><ELEMENT_SET_NO>999</ELEMENT_SET_NO><REV_AT_EPOCH>31064</REV_AT_EPOCH><BSTAR>.90105E-3</BSTAR><MEAN_MOTION_DOT>.2672E-4</MEAN_MOTION_DOT><MEAN_MOTION_DDOT>0</MEAN_MOTION_DDOT></tleParameters></data></segment></body></omm>
<omm id="CCSDS_OMM_VERS" version="2.0">
<header><CREATION_DATE/><ORIGINATOR/></header><body><segment><metadata><OBJECT_NAME>ORBCOMM FM36</OBJECT_NAME><OBJECT_ID>1999-065E</OBJECT_ID><CENTER_NAME>EARTH</CENTER_NAME><REF_FRAME>TEME</REF_FRAME><TIME_SYSTEM>UTC</TIME_SYSTEM><MEAN_ELEMENT_THEORY>SGP4</MEAN_ELEMENT_THEORY></metadata><data><meanElements><EPOCH>2024-12-23T01:10:58.751040</EPOCH><MEAN_MOTION>14.37210759</MEAN_MOTION><ECCENTRICITY>.0003945</ECCENTRICITY><INCLINATION>45.0371</INCLINATION><RA_OF_ASC_NODE>205.1021</RA_OF_ASC_NODE><ARG_OF_PERICENTER>133.4985</ARG_OF_PERICENTER><MEAN_ANOMALY>226.6192</MEAN_ANOMALY></meanElements><tleParameters><EPHEMERIS_TYPE>0</EPHEMERIS_TYPE><CLASSIFICATION_TYPE>U</CLASSIFICATION_TYPE><NORAD_CAT_ID>25984</NORAD_CAT_ID><ELEMENT_SET_NO>999</ELEMENT_SET_NO><REV_AT_EPOCH>30966</REV_AT_EPOCH><BSTAR>.84242E-3</BSTAR><MEAN_MOTION_DOT>.2389E-4</MEAN_MOTION_DOT><MEAN_MOTION_DDOT>0</MEAN_MOTION_DDOT></tleParameters></data></segment></body></omm>
<omm id="CCSDS_OMM_VERS" version="2.0">
<header><CREATION_DATE/><ORIGINATOR/></header><body><segment><metadata><OBJECT_NAME>ORBCOMM FM35</OBJECT_NAME><OBJECT_ID>1999-065F</OBJECT_ID><CENTER_NAME>EARTH</CENTER_NAME><REF_FRAME>TEME</REF_FRAME><TIME_SYSTEM>UTC</TIME_SYSTEM><MEAN_ELEMENT_THEORY>SGP4</MEAN_ELEMENT_THEORY></metadata><data><meanElements><EPOCH>2024-12-22T21:50:26.537568</EPOCH><MEAN_MOTION>14.36353257</MEAN_MOTION><ECCENTRICITY>.0003126</ECCENTRICITY><INCLINATION>45.0381</INCLINATION><RA_OF_ASC_NODE>209.4791</RA_OF_ASC_NODE><ARG_OF_PERICENTER>225.8301</ARG_OF_PERICENTER><MEAN_ANOMALY>134.2291</MEAN_ANOMALY></meanElements><tleParameters><EPHEMERIS_TYPE>0</EPHEMERIS_TYPE><CLASSIFICATION_TYPE>U</CLASSIFICATION_TYPE><NORAD_CAT_ID>25985</NORAD_CAT_ID><ELEMENT_SET_NO>999</ELEMENT_SET_NO><REV_AT_EPOCH>30962</REV_AT_EPOCH><BSTAR>.59348E-3</BSTAR><MEAN_MOTION_DOT>.1611E-4</MEAN_MOTION_DOT><MEAN_MOTION_DDOT>0</MEAN_MOTION_DDOT></tleParameters></data></segment></body></omm>
<omm id="CCSDS_OMM_VERS" version="2.0">
<header><CREATION_DATE/><ORIGINATOR/></header><body><segment><metadata><OBJECT_NAME>ORBCOMM FM34</OBJECT_NAME><OBJECT_ID>1999-065G</OBJECT_ID><CENTER_NAME>EARTH</CENTER_NAME><REF_FRAME>TEME</REF_FRAME><TIME_SYSTEM>UTC</TIME_SYSTEM><MEAN_ELEMENT_THEORY>SGP4</MEAN_ELEMENT_THEORY></metadata><data><meanElements><EPOCH>2024-12-22T19:28:16.361472</EPOCH><MEAN_MOTION>14.36388766</MEAN_MOTION><ECCENTRICITY>.0003836</ECCENTRICITY><INCLINATION>45.0376</INCLINATION><RA_OF_ASC_NODE>210.4754</RA_OF_ASC_NODE><ARG_OF_PERICENTER>170.6012</ARG_OF_PERICENTER><MEAN_ANOMALY>189.4909</MEAN_ANOMALY></meanElements><tleParameters><EPHEMERIS_TYPE>0</EPHEMERIS_TYPE><CLASSIFICATION_TYPE>U</CLASSIFICATION_TYPE><NORAD_CAT_ID>25986</NORAD_CAT_ID><ELEMENT_SET_NO>999</ELEMENT_SET_NO><REV_AT_EPOCH>30953</REV_AT_EPOCH><BSTAR>.5932E-3</BSTAR><MEAN_MOTION_DOT>.1611E-4</MEAN_MOTION_DOT><MEAN_MOTION_DDOT>0</MEAN_MOTION_DDOT></tleParameters></data></segment></body></omm>
<omm id="CCSDS_OMM_VERS" version="2.0">
<header><CREATION_DATE/><ORIGINATOR/></header><body><segment><metadata><OBJECT_NAME>ORBCOMM FM38</OBJECT_NAME><OBJECT_ID>2008-031A</OBJECT_ID><CENTER_NAME>EARTH</CENTER_NAME><REF_FRAME>TEME</REF_FRAME><TIME_SYSTEM>UTC</TIME_SYSTEM><MEAN_ELEMENT_THEORY>SGP4</MEAN_ELEMENT_THEORY></metadata><data><meanElements><EPOCH>2024-12-23T05:20:44.968416</EPOCH><MEAN_MOTION>14.79885509</MEAN_MOTION><ECCENTRICITY>.0005713</ECCENTRICITY><INCLINATION>48.4403</INCLINATION><RA_OF_ASC_NODE>73.0193</RA_OF_ASC_NODE><ARG_OF_PERICENTER>350.0555</ARG_OF_PERICENTER><MEAN_ANOMALY>10.0247</MEAN_ANOMALY></meanElements><tleParameters><EPHEMERIS_TYPE>0</EPHEMERIS_TYPE><CLASSIFICATION_TYPE>U</CLASSIFICATION_TYPE><NORAD_CAT_ID>33060</NORAD_CAT_ID><ELEMENT_SET_NO>999</ELEMENT_SET_NO><REV_AT_EPOCH>88866</REV_AT_EPOCH><BSTAR>.59975E-3</BSTAR><MEAN_MOTION_DOT>.4365E-4</MEAN_MOTION_DOT><MEAN_MOTION_DDOT>0</MEAN_MOTION_DDOT></tleParameters></data></segment></body></omm>
<omm id="CCSDS_OMM_VERS" version="2.0">
<header><CREATION_DATE/><ORIGINATOR/></header><body><segment><metadata><OBJECT_NAME>ORBCOMM FM41</OBJECT_NAME><OBJECT_ID>2008-031B</OBJECT_ID><CENTER_NAME>EARTH</CENTER_NAME><REF_FRAME>TEME</REF_FRAME><TIME_SYSTEM>UTC</TIME_SYSTEM><MEAN_ELEMENT_THEORY>SGP4</MEAN_ELEMENT_THEORY></metadata><data><meanElements><EPOCH>2024-12-22T16:00:43.526880</EPOCH><MEAN_MOTION>14.79513706</MEAN_MOTION><ECCENTRICITY>.0005152</ECCENTRICITY><INCLINATION>48.4435</INCLINATION><RA_OF_ASC_NODE>82.8656</RA_OF_ASC_NODE><ARG_OF_PERICENTER>332.1052</ARG_OF_PERICENTER><MEAN_ANOMALY>176.6842</MEAN_ANOMALY></meanElements><tleParameters><EPHEMERIS_TYPE>0</EPHEMERIS_TYPE><CLASSIFICATION_TYPE>U</CLASSIFICATION_TYPE><NORAD_CAT_ID>33061</NORAD_CAT_ID><ELEMENT_SET_NO>999</ELEMENT_SET_NO><REV_AT_EPOCH>88808</REV_AT_EPOCH><BSTAR>.56026E-3</BSTAR><MEAN_MOTION_DOT>.4026E-4</MEAN_MOTION_DOT><MEAN_MOTION_DDOT>0</MEAN_MOTION_DDOT></tleParameters></data></segment></body></omm>
<omm id="CCSDS_OMM_VERS" version="2.0">
<header><CREATION_DATE/><ORIGINATOR/></header><body><segment><metadata><OBJECT_NAME>ORBCOMM FM29</OBJECT_NAME><OBJECT_ID>2008-031C</OBJECT_ID><CENTER_NAME>EARTH</CENTER_NAME><REF_FRAME>TEME</REF_FRAME><TIME_SYSTEM>UTC</TIME_SYSTEM><MEAN_ELEMENT_THEORY>SGP4</MEAN_ELEMENT_THEORY></metadata><data><meanElements><EPOCH>2024-12-22T15:49:25.750848</EPOCH><MEAN_MOTION>14.79544953</MEAN_MOTION><ECCENTRICITY>.0006805</ECCENTRICITY><INCLINATION>48.4385</INCLINATION><RA_OF_ASC_NODE>90.8831</RA_OF_ASC_NODE><ARG_OF_PERICENTER>333.6764</ARG_OF_PERICENTER><MEAN_ANOMALY>173.1789</MEAN_ANOMALY></meanElements><tleParameters><EPHEMERIS_TYPE>0</EPHEMERIS_TYPE><CLASSIFICATION_TYPE>U</CLASSIFICATION_TYPE><NORAD_CAT_ID>33062</NORAD_CAT_ID><ELEMENT_SET_NO>999</ELEMENT_SET_NO><REV_AT_EPOCH>88799</REV_AT_EPOCH><BSTAR>.58382E-3</BSTAR><MEAN_MOTION_DOT>.4208E-4</MEAN_MOTION_DOT><MEAN_MOTION_DDOT>0</MEAN_MOTION_DDOT></tleParameters></data></segment></body></omm>
<omm id="CCSDS_OMM_VERS" version="2.0">
<header><CREATION_DATE/><ORIGINATOR/></header><body><segment><metadata><OBJECT_NAME>ORBCOMM FM39</OBJECT_NAME><OBJECT_ID>2008-031D</OBJECT_ID><CENTER_NAME>EARTH</CENTER_NAME><REF_FRAME>TEME</REF_FRAME><TIME_SYSTEM>UTC</TIME_SYSTEM><MEAN_ELEMENT_THEORY>SGP4</MEAN_ELEMENT_THEORY></metadata><data><meanElements><EPOCH>2024-12-22T20:04:59.896704</EPOCH><MEAN_MOTION>14.78277607</MEAN_MOTION><ECCENTRICITY>.0007882</ECCENTRICITY><INCLINATION>48.4392</INCLINATION><RA_OF_ASC_NODE>112.4810</RA_OF_ASC_NODE><ARG_OF_PERICENTER>311.4248</ARG_OF_PERICENTER><MEAN_ANOMALY>48.5988</MEAN_ANOMALY></meanElements><tleParameters><EPHEMERIS_TYPE>0</EPHEMERIS_TYPE><CLASSIFICATION_TYPE>U</CLASSIFICATION_TYPE><NORAD_CAT_ID>33063</NORAD_CAT_ID><ELEMENT_SET_NO>999</ELEMENT_SET_NO><REV_AT_EPOCH>88811</REV_AT_EPOCH><BSTAR>.63125E-3</BSTAR><MEAN_MOTION_DOT>.4429E-4</MEAN_MOTION_DOT><MEAN_MOTION_DDOT>0</MEAN_MOTION_DDOT></tleParameters></data></segment></body></omm>

</ndm>
